"CompanyID","Active","CompanyName","CompanyTypeID","WorkTypeID","Address","Road","Village","District","Province","Zipcode","Telephone","Travel","lat","lon"
"1","0","บริษัท ทริปเปิลที บรอดแบนด์ จำกัด (มหาชน)","3",NULL,"200 ม.4  ","แจ้งวัฒนะ","ปากเกร็ด","ปากเกร็ด","นนทบุรี",NULL,"02-1003025",NULL,NULL,NULL
"2","1","บริษัท ยิบอินซอย จำกัด","3",NULL,"523","มหาพฤฒาราม","มหาพฤฒาราม ","บางรัก","กรุงเทพมหานคร",NULL,"02-3538600",NULL,NULL,NULL
"4","0","บริษัท GDL Technology (Gemdeluxe.Com Co.,Ltd.)","3",NULL,"1693 ชั้น 12 เซ็นทรัลลาดพร้าวพลาซ่า","ถ.พหลโยธิน",NULL,NULL,"กรุงเทพมหานคร
",NULL,NULL,NULL,NULL,NULL
"5","0","สำนักงานปลัดกระทรวงเทคโนโลยีสารสนเทศและการสื่อสาร","1",NULL,"120 ม. 3 ศูนย์ราชการเฉลิมพระเกียรติ 80 พรรษาฯ อาคารรัฐประศาสนภักดี","แจ้งวัฒนะ","ทุ่งสองห้อง","หลักสี่","กรุงเทพมหานคร","10210",NULL,NULL,NULL,NULL
"6","0","ธนาคารออมสิน สำนักงานใหญ่ ","2",NULL,"470 ","พหลโยธิน","สามเสนใน","พญาไท","กรุงเทพมหานคร","10400",NULL,NULL,NULL,NULL
"7","0","บริษัท Magic Software (Thailand) Corp., Ltd","3",NULL,"9/68 MST House ซ. รัชดาภิเษก33","รัชดาภิเษก",,"จตุจักร ","กรุงเทพมหานคร",,"029119988",NULL,NULL,NULL
"8","0","บริษัท Infonet international CO.,LTD ","3",NULL,"2170, 9th Bangkok Tower","เพชรบุรีตัดใหม่","บางกะปิ","ห้วยขวาง","กรุงเทพมหานคร","10310",,NULL,NULL,NULL
"9","1","สำนักงานวิทยบริการและเทคโนโลยีสารสนเทศ มหาวิทยาลัยเทคโนโลยีราชมงคลพระนคร ","1",NULL,"399","สามเสน ","วชริพยาบาล ","ดุสิต ","กรุงเทพมหานคร","10300",,NULL,NULL,NULL
"10","1","สำนักงานสลากกินแบ่งรัฐบาล","1",NULL,"259","นนทบุรี","ท่าทราย","เมือง","นนทบุรี","11000","02-5288888",NULL,NULL,NULL
"11","0","บริษัท TGS Enterprise Network Limited (Thailand) ","3",NULL,"2922/221 อาคารชาญอิสระ 2 ชั้น 14","เพชรบุรีตัดใหม่",,"ห้วยขวาง","กรุงเทพมหานคร","10310",,NULL,NULL,NULL
"12","0","การรถไฟฟ้าขนส่งมวลชนแห่งประเทศไทย ","2",NULL,"175","พระราม 9",NULL,"ห้วยขวาง","กรุงเทพมหานคร","10320",NULL,NULL,NULL,NULL
"13","0","บริษัท Blue & White Group","3",NULL,"สถานีขนส่งพุทธมณฑล 133 ม.1","บรมราชชนนี","บางเตย","สามพราน","นครปฐม","73210 ",,NULL,NULL,NULL
"14","1","กรมชลประทาน ศูนย์เทคโนโลยีสารสนเทศและการสื่อสาร","1",NULL,"811 ","สามเสน","นครไชยศรี","ดุสิต","กรุงเทพมหานคร","10300",,NULL,NULL,NULL
"15","0","บริษัท ล็อกซเล่ย์ จำกัด (มหาชน) ฝ่ายระบบควบคุม","3",NULL,"102","ระนอง ","คลองเตย","คลองเตย","กรุงเทพมหานคร","10110",NULL,NULL,NULL,NULL
"16","1","บริษัท จัสมินอินเตอร์เนชั่นแนล จำกัด","3",NULL,"200 หมู่ 4 อาคารจัสมิน อินเตอร์เนชั่นแนล ชั้น 30","แจ้งวัฒนะ","ปากเกร็ด","ปากเกร็ด ","นนทบุรี ","11120",,NULL,NULL,NULL
"17","0","บริษัท บีอีซี-เทโร เอ็นเตอร์เทนเม้นท์ จ ากัด (มหาชน) ","3",NULL,"3199 อาคารมาลันนท์ทาวเวอร์ ชั้น22 ","พระราม4 ","คลองตัน ","คลองเตย","กรุงเทพมหานคร","10110",NULL,NULL,NULL,NULL
"18",,"บริษัท เวสเทริ์น ดิจิตอล (ประเทศไทย) จำกัด ","3",NULL,"140 ",NULL,"คลองจิก","บางประอิน ","พระนครศรีอยุธยา ","13160",NULL,NULL,NULL,NULL
"19","0","บริษัท RIS CO., Ltd ","3",NULL,"Central Silom Tower, 306 ","สีลม ","สุริยวงศ์ ","บางรัก ","กรุงเทพมหานคร","10500",,NULL,NULL,NULL
"20","1","บริษัท ดาต้า อินโมชั่น จำกัด ","3",NULL,"ชั้น 8 อาคารอัลม่าลิงค์ เลขที่ 25 ซ.ชิดลม","เพลินจิต ","ลุมพินี ","ประทุมวัน","กรุงเทพมหานคร","10300","02-2556691",NULL,NULL,NULL
"21","0","การไฟฟ้าฝ่ายผลิตแห่งประเทศไทย ฝ่ายสิ่งแวดล้อม ","2",NULL,"โครงการ 53 หมู่ 3 ถ.จ","จรัญสนิทวงศ์ ",,"บางกรวย","นนทบุรี","11130",NULL,NULL,NULL,NULL
"22","0","บริษัท เบนซ์ บีเคเค วิภาวดี จำกัด","3",NULL,"99","ถ.วิภาวดี-รังสิต 40 ","ลาดยาว ","จตุจักร","กรุงเทพมหานคร","10900",NULL,NULL,NULL,NULL
"23","0","กรมส่งเสริมการเกษตร","1",NULL," 2143-1","พหลโยธิน",NULL,"จตุจักร","กรุงเทพมหานคร","10900",NULL,NULL,NULL,NULL
"24","0","โรงพยาบาลเจ้าพระยา ศูนย์คอมพิวเตอร์","1",NULL,NULL,NULL,NULL,NULL,NULL,NULL,NULL,NULL,NULL,NULL
"25","0","โรงพยาบาลสำเด็จพระปิ่นเกล้า","1",NULL,NULL,NULL,NULL,NULL,NULL,NULL,NULL,NULL,NULL,NULL
"26","0","บริษัท พรีเมียม 360 จำกัด","3",NULL,NULL,NULL,NULL,NULL,NULL,NULL,NULL,NULL,NULL,NULL
"28",,"บริษัท แมกเนทกรุ๊ปพลัส","3",NULL,"68/940-942 หมู่8 ซ.รัตนาธิเบศร์28   ต.บางกระสอ ","รัตนาธิเบศร์",,"เมือง","นนทบุรี","11000","02-8349500",NULL,NULL,NULL
"29",,"สถานีวิทยุโทรทัศน์กองทัพบก","1",NULL,"210","พหลโยธิน",NULL,"พญาไท","กรุงเทพมหานคร","10400","02-2388555",NULL,NULL,NULL
"30",,"การไฟฟ้านครหลวง สาขาบางบัวทอง","2",NULL,"38/2 ม.10 ถ.บางกรวย-ไทรน้อย ต.บางเลน ","บางกรวย-ไทรน้อย",NULL,"บางใหญ่","นนทบุรี","11140","02-8343200",NULL,NULL,NULL
"31","1","บริษัท บุญรอดบริเวอรี่ จำกัด","3",NULL,"999 ","สามเสน",NULL,"ดุสิต","กรุงเทพมหานคร","10300","02-242-4000",NULL,NULL,NULL
"32",,"บริษัท Jabjai for school","3",NULL,"812/36 ซอยสมชาย ซอย 3 แขวงวัดท่าพระ","จรัญสนิทวงศ์",,"บางกอกใหญ่","กรุงเทพมหานคร","10600","098-9541797",NULL,NULL,NULL
"33",,"บริษัท แอดวานซ์ อินโฟร์ เซอร์วิส จำกัด (มหาชน)","3",NULL,"414 อาคารเอไอเอส 1 ชั้น 12 แขวงสามเสนใน ","พหลโยธิน",NULL,"พญาไท","กรุงเทพมหานคร","10400","02-0294241",NULL,NULL,NULL
"34",,"บริษัท พระนครซอฟต์ จำกัด","3",NULL,"250 ลาดพร้าว 63 แยก 6 วังทองหลาง ","ลาดพร้าว",NULL,"วังทองหลาง","กรุงเทพมหานคร","10310","02-042-1140",NULL,NULL,NULL
"35",,"สำนักงานส่งเสริมวิสาหกิจขนาดกลางและขนาดย่อม (สสว.)","1",NULL,"21 อาคารทีเอสที ชั้น G,17,18,23","วิภาวดีรังสิต",NULL,"จตุุจักร","กรุงเทพมหานคร","10900","02-2983117",NULL,NULL,NULL
"36",,"การไฟฟ้านครหลวง เขตนนทบุรี
","2",NULL,"285 ต.บางกระสอ ","ติวานนท์",NULL,"เมือง","นนทบุรี","11000","02-9025203",NULL,NULL,NULL
"37",,"บริษัท บางกอก เว็บ โซลูชั่น จำกัด","3",NULL,"182 หมู่บ้านตะวันรุ่ง ซอย7 ถ.ลาดพร้าว64 แยก4 แขวงวังทองหลาง ","ลาดพร้าว",NULL,"วังทองหลาง","กรุงเทพมหานคร","10310","02-9339750-1",NULL,NULL,NULL
"38",,"บริษัท พีกาสัส อินเตอร์ โลจิสติคส์ จำกัด","3",NULL,"8 ซอยพหลโยธิน 46/2 ถ.พหลโยธิน แขวงอนุสาวรีย์ ","พหลโยธิน",NULL,"บางเขน","กรุงเทพมหานคร","10220","02-521-9358",NULL,NULL,NULL
"39",,"การไฟฟ้าฝ่ายผลิตแห่งประเทศไทย แผนกวางแผนสารสนเทศ","2",NULL,"53 หมู่ 3 ","จรัญสนิทวงศ์ ",NULL,"บางกรวย","นนทบุรี","11130","02436110-1416",NULL,NULL,NULL
"40",,"กองอำนวยการรักษาความั่นคงภายในราชอาณาจักร ","1",NULL,"เลขที่ 8 ","ราชสีมา ",NULL,"ดุสิต","กรุงเทพมหานคร","10300","022412051-6",NULL,NULL,NULL
"41",,"บริษัท Inne product Co.,Ltd ","3",NULL,"155/58 Phulsa Privet, Soi Nawamin 111 ","นวมินทร์",,"บึงกุ่ม","กรุงเทพมหานคร","10240","819082026",NULL,NULL,NULL
"42",,"บริษัท คอนโทรล ดาต้า (ประเทศไทย) จำกัด","3",NULL,"202 ซีดีจีเฮ้าส์  แขวงช่องนนทรี ","นางลิ้นจี่",NULL,"ยานนาวา","กรุงเทพมหานคร","10120","026780200-1",NULL,NULL,NULL
"43","1","บริษัท ปัญญา คอนซัลแตนท์ จำกัด","3",NULL,"อาคาร เดอะ ปัณณ์ ชั้น3 เลขที่125 แขวงนวมินทร์"," คลองลำเจียก ",NULL,"บึงกุ่ม","กรุงเทพมหานคร","10230","02-9439600-10",NULL,NULL,NULL
"44",,"บริษัท ทีโอที จำกัด (มหาชน)","2",NULL,"89/2 ม.3  แขวงทุ่งสองห้อง ","แจ้งวัฒนะ",NULL,"หลักสี่","กรุงเทพมหานคร","10210","02-5051587",NULL,NULL,NULL
"45",,"บริษัท อักษรเจริญทัศน์ อจท.จำกัด","3",NULL,"142 ซอย แพร่งสรรพศาสตร์  แขวงศาลเจ้าพ่อเสือ ","ตะนาว",NULL,"พระนคร","กรุงเทพมหานคร","10200","02-6222999-2612",NULL,NULL,NULL
"46",,"บริษัท ปทุมธานี บริวเวอรี่ จำกัด","3",NULL,"2 ม.9 ซอยใจเอื้อ ",,"บางคูวัด","เมือง","ปทุมธานี","10200","02-5051587",NULL,NULL,NULL
"47",,"บริษัท สยามมิชลิน จำกัด","3",NULL,"32 ม.2 ต.สำโรงกลาง",NULL,NULL,"พะประแดง","สมุทรปราการ","10130","02-1834454-9",NULL,NULL,NULL
"48",,"กรมป้องกันสาธารณภัย ","1",NULL,,"อู่ทองนอก ",NULL,"ดุสิต","กรุงเทพมหานคร","10300","085-0208080",NULL,NULL,NULL
"49",,"บริษัท เครือแอทโฮม จำกัด","3",NULL,"41/42 ม.3  ต.บางกร่าง ","บางกรวย-ไทรน้อย",NULL,"เมือง","นนทบุรี","11000","02-9034172",NULL,NULL,NULL
"50",,"บริษัท KG Dataserve Co.,Ltd","3",NULL,"333-94  แขวงตลาดบางเขน ","กำแพงเพชร",,"หลักสี่","กรุงเทพมหานคร","10210","02-5761304-5",NULL,NULL,NULL
"51",,"บริษัท เอ็มดีซอฟท์ จำกัด",NULL,NULL,"999/95 หมู่บ้านซื่อตรงแกรนด์โฮม ซอย พหลโยธิน 34","พหลโยธิน",NULL,"บางเขน","กรุงเทพมหานคร",NULL,NULL,NULL,NULL,NULL
"52",,"บริษัท ซีเอส ล็อกซอินโฟ จำกัด (มหาชน)",NULL,NULL,"CW Tower 90","รัชดาภิเษก","ห้วยขวาง","ห้วยขวาง","กรุงเทพมหานคร","10310",NULL,NULL,NULL,NULL
"53",,"มหาวิทยาลัยเทคโนโลยีพระจอมเกล้าพระนครเหนือ",NULL,NULL,,NULL,NULL,NULL,"กรุงเทพมหานคร",NULL,NULL,NULL,NULL,NULL
"54",,"การไฟฟ้าฝ่ายผลิตแห่งประเทศไทย แผนกวิศวกรรมเครื่องกล","2",NULL,"53 หมู่ 3 ","จรัญสนิทวงศ์ ",NULL,"บางกรวย","นนทบุรี","11130","02436110-1416",NULL,NULL,NULL
"55",,"การไฟฟ้าฝ่ายผลิตแห่งประเทศไทย แผนกเทคโนโลยีสารสนเทศบุคคล","2",NULL,"53 หมู่ 3 ","จรัญสนิทวงศ์ ",NULL,"บางกรวย","นนทบุรี","11130","02436110-1416",NULL,NULL,NULL
"56","1","สำนักงานเลขาธิการสภาผู้แทนราษฏร สำนักสารสนเทศ",NULL,NULL,"1111","สามเสน","ถนนนครไชยศรี","ดุสิต ","กรุงเทพมหานคร ","10300","022425900",NULL,NULL,NULL
"58","1","บริษัท แฮปปี้แลนด์กรุ๊ป จำกัด",NULL,NULL,"90 ซอยศูนย์การค้าแฮปปี้แลนด์ ","ลาดพร้าว","คลองจั่น ","บางกะปิ ","กรุงเทพมหานคร ","10240",,NULL,NULL,NULL
"59","1","บริษัท บีเอสดีวีลอปเปอร์แอนด์กราฟฟิค จำกัด",NULL,NULL,"1111/8 ","ซอยลาดพร้าว 94 แขวงพลับพลา",NULL,"วังทองหลาง","กรุงเทพมหานคร",NULL,NULL,NULL,NULL,NULL
"60","1","การเคหะแห่งชาติ",NULL,NULL,"905","นวมินทร์","คลองจั่น ","บางกะปิ ","กรุงเทพมหานคร ","10240",,NULL,NULL,NULL
"61","1","บริษัท ออคตากอน อินเทอร์แอคทีฟ จำกัด",NULL,NULL,"919/541B ชั้น49 อาคาร Jewelry Trend Center","สีลม ซอย 19","บางรัก","สีลม","กรุงเทพมหานคร","10500","02-3516997",NULL,NULL,NULL
"62","1","บริษัท ซี.เจ. เอ็กซ์เพรส กรุ๊ป จำกัด",NULL,NULL,"393 อาคาร 393 สีลม ชั้น 5-6","สีลม","สีลม","บางรัก","กรุงเทพมหานคร ","10500 ",,NULL,NULL,NULL
"63","1","การประปาส่วนภูมิภาค สำนักงานใหญ่.  ",NULL,NULL,"72","แจ้งวัฒนะ","บางเขน","หลักสี่ ","กรุงเทพมหานคร","10210","02-5518523",NULL,NULL,NULL
"65","1","บริษัท Magic Software (Thailand) Corp., Ltd",NULL,NULL,"9/68 MST House ซ. รัชดาภิเษก33","รัชดาภิเษก ",,"จตุจักร ","กรุงเทพมหานคร","10900","02-9119988",NULL,NULL,NULL
"66","1","บริษัท KMIT-GROUP Co.,Ltd.",NULL,NULL,"อาคารคอสโม ออฟฟิศ พาร์ค ชั้น 5 ยูนิต I Popular 3",,"บ้านใหม่","ปากเกร็ด","นนทบุรี","11120","020491740-1",NULL,NULL,NULL
"67","1","บริษัท อิซปาล คอร์ปอเรชั่น จำกัด. 
",NULL,NULL,"299/22 หมู่บ้านวิสต้าปาร์ค","วิภาวดี-รังสิต","ตลาดบางเขน","หลักสี่ ","กรุงเทพมหานคร","10210","02-551767",NULL,NULL,NULL
"68","1","บริษัท ดิเอ็นเตอร์ไพรส์รีซอร์ส เทรนนิ่ง จำกัด
",NULL,NULL,"2922/135-136 ชั้น 3 (โซนพลาซ่า) ห้อง 331-332. อาคารชาญอิสสระทาวเวอร์ 2 ","เพชรบุรีตัดใหม่","บางกะปิ","ห้วยขวาง ","กรุงเทพมหานคร","10320 ","02-7181599",NULL,NULL,NULL
"69","1","บริษัท การบินไทย จำกัด (มหาชน) 
",NULL,NULL,"89","วิภาวดีรังสิต","จอมพล","จตุจักร ","กรุงเทพมหานคร","10900","02-5451371",NULL,NULL,NULL
"70","1","บริษัท Sellsuki CO. Ltd",NULL,NULL,"10/39 ชั้นที่ 3","รัชดาภิเษก ","จันทรเกษม","จตุจักร ","กรุงเทพมหานคร ","10900 ","02-0263250",NULL,NULL,NULL
"71","1","การรถไฟฟ้าขนส่งมวลชนแห่งประเทศไทย
",NULL,NULL,"175","พระราม9",,"ห้วยขวาง ","กรุงเทพมหานคร","10320","02-7164000",NULL,NULL,NULL
"72","1","บริษัท เอส.จี.ดี.อินเตอร์ เทรดดิ้ง จำกัด
",NULL,NULL,"54/5-6 ซอยหน้าวัง ","เจริญกรุง ","วังบูรพาภิรมย์","พระนคร","กรุงเทพมหานคร","10200","02-222-0559 ",NULL,NULL,NULL
"73","1","บริษัท เอ-โฮสต์ จำกัด. 
",NULL,NULL,"979/53-55 อาคาร เอส เอ็ม ทาวเวอร์ ชั้น 21 ","พหลโยธิน ","สามเสนใน","พญาไท ","กรุงเทพมหานคร",," 0-2298-0625-32",NULL,NULL,NULL
"74","1","บริษัท เมโทรซิสเต็มส์คอร์ปอเรชั่น จำกัด (มหาชน)",NULL,NULL,"400","เฉลิมพระเกียรติ ร.9","หนองบอน","ประเวศ ","กรุงเทพมหานคร","10250",,NULL,NULL,NULL
"75","1","บริษัท ไทยสมเด็จ เซอร์วิส จำกัด
",NULL,NULL,"144ม144/1","พระราม 4","พระโขนง ","คลองเตย ","กรุงเทพมหานคร ","10110"," 02-3813883",NULL,NULL,NULL
"76","1","บริษัท หลักทรัพย์ เคที ซีมิโก้ จำกัด",NULL,NULL,"ชั้น 16 อาคารลิเบอร์ตี้สแควร์ 287","สีลม",,"บางรัก","กรุงเทพมหานคร","10500","695-5000",NULL,NULL,NULL
"77","1","บริษัท แมกนิทูด พลัส จำกัด 
",NULL,NULL,"ม.บ้านแกรนดิตี้ 369/54","บางกรวย-ไทรน้อย","บางบัวทอง ","บางบัวทอง ","นนทบุรี ","11110 ","088 277 0134 ",NULL,NULL,NULL
"78","1","บริษัท วาสอัพ จำกัด
",NULL,NULL,"18/281 หมู่บ้าน เดอะเทอเรส ซอยรามอินทรา65","ท่าแร้ง ",,"บางเขน ","กรุงเทพมหานคร","10220","082-44441644",NULL,NULL,NULL
"79","1","บริษัท แอดวานซ์ เน็ตเวิร์ค เทคโนโลยี แอนด์ เซอร์วิส จำกัด",NULL,NULL,"42/92 โครงการบ้านกลางเมือง รัตนาธิเบศร์","เลี่ยงเมืองนนทบุรี 10 ","บางกระสอ ","เมืองนนทบุรี ","นนทบุรี ","11000","083-1981470",NULL,NULL,NULL
"80","1","บริษัท ไพน์แอปเปิ้ลวิชั่นซิสเต็มส์ จำกัด. 
",NULL,NULL,"17 ซอยลาดปลาเค้า 18","ลาดปลาเค้า ","จรเข้บัว ","ลาดพร้าว ","กรุงเทพมหานคร","10230","094-484-3732.",NULL,NULL,NULL
"81","1","บริษัท ไพร์มโซลูชั่น แอนด์ เซอร์วิส จำกัด แผนก Network Engineering",NULL,NULL,"200 หมู่ 4 อาคารจัสมิน อินเตอร์เนชั่นแนล ชั้น 26 ห้อง 2602","แจ้งวัฒนะ","ปากเกร็ด","ปากเกร็ด","นนทบุรี","11120",,NULL,NULL,NULL
"82","1","การไฟฟ้าฝ่ายผลิตแห่งประเทศไทย ฝ่ายพัฒนาบุคลากร",NULL,NULL,"55 หมู่ 2","จรัญสนิทวงศ์",,"บางกรวย","นนทบุรี","11130","02-4367170",NULL,NULL,NULL
"83","1","บริษัท สีวลี คอมพิวเตอร์ จำกัด ",NULL,NULL,"89/21 หมู่ 10",,"บางรักใหญ่","บางบัวทอง ","นนทบุรี ","11110",,NULL,NULL,NULL
"85","1","บริษัท ดี.ที.ซี.เอ็นเตอร์ไพรส์ จำกัด",NULL,NULL,"63 ซ.สุขุมวิท 68",,"บางนา ","บางนา ","กรุงเทพมหานคร","10260",,NULL,NULL,NULL
"86","1","บริษัท ไอดีซี พรีเมียร์ จำกัด",NULL,NULL,"200 ม.4 ชั้น 19 ห้อง 1901 จัสมินอินเตอร์เนชั่นแนลทาวเวอร์","แจ้งวัฒนะ ","ปากเกร็ด","เมือง","นนทบุรี","11120",,NULL,NULL,NULL
"87","1","บริษัท เอส เอฟ คอร์ปอเรชั่น จำกัด (มหาชน)",NULL,NULL,"444 ชั้น 10-12 อาคารเอ็ม บี เค ทาวเวอร์","พญาไท ","วังใหม่","ปทุมวัน ","กรุงเทพมหานคร","10330",,NULL,NULL,NULL
"88","1","บริษัท คอมพิวเตอร์ซิสเต็มอินทิเกรชั่น จำกัด",NULL,NULL,"76 ซ.รัตนาธิเบศร์ 28","รัตนาธิเบศร์","บางกระสอ","เมือง","นนทบุรี","11000",,NULL,NULL,NULL
"89","1","การไฟฟ้าฝ่ายผลิตแห่งประเทศไทย",NULL,NULL,,,,,,,,NULL,NULL,NULL
"90","1","กระทรวงแรงงาน",NULL,NULL,"อาคารสำนักงานประกันสังคม ชั้น 9 ","มิตรไมตรี ","ดินแดง ","ดินแดง ","กรุงเทพมหานคร","10400",,NULL,NULL,NULL
"91","1","การประปานครหลวง",NULL,NULL,"400","ประชาชื่น","ทุ่งสองห้อง","หลักสี่","กรุงเทพมหานคร","10210",,NULL,NULL,NULL
"92","1","บริษัท เซลสุกิ จำกัด",NULL,NULL,"10/39 ชั้น 3 ","รัชดาภิเษก ","จันทรเกษม","จตุจักร ","กรุงเทพมหานคร","10900",,NULL,NULL,NULL
"93","1","เทศบาลนครนนทบุรี",NULL,NULL,"13 ซอยรัตนาธิเบศร์ 6","รัตนาธิเบศร์","บางกระสอ","เมือง","นนทบุรี","11000",,NULL,NULL,NULL
"94","1","บริษัท บลูบ๊อกซ์เทคโนโลยี จำกัด",NULL,NULL,"876/1","ประชาราษฎร์สาย 1 ","วงศ์สว่าง ","บางซื่อ ","กรุงเทพมหานคร","10800",,NULL,NULL,NULL
"96","1","บริษัท เพาเวอร์เมติค จำกัด",NULL,NULL,"50/1 ซ.ติวานนท์ 40 ถ.ต.","ติวานนท์ ","ท่าทราย","เมือง","นนทบุรี","11000",,NULL,NULL,NULL
"97","1","บริษัท ยูนิก้า อินโฟเทค จำกัด",NULL,NULL,"22/1 ยูนิค 2/1-2 อาคารไนซ์ ออฟฟิต แอนด์ แวร์เฮ้าส์ ซ.นนทบุรี 32 ",,"ท่าทราย ","เมือง","นนทบุรี ","11000",,NULL,NULL,NULL
"98","1","สถาบันมาตรวิทยาแห่งชาติ",NULL,NULL,"3 / 4-5 หมู่ที่ 3",,"คลองห้า","คลองหลวง","ปทุมธานี","12120",,NULL,NULL,NULL
"99","1","ธนาคารออมสิน สาขาปากเกร็ด",NULL,NULL,"100","แจ้งวัฒนะ ","ปากเกร็ด","เมือง","นนทบุรี","11120",,NULL,NULL,NULL
"100","1","บริษัท ไวซ ซอฟท์ จำกัด",NULL,NULL,"408/166 อาคารพหลโยธินเพลส ชั้น 41","พหลโยธิน ","สามเสนใน","พญาไท ","กรุงเทพมหานคร","10400",,NULL,NULL,NULL
"101","1","บริษัท แลนด์โก้ สปอร์ต แอนด์ มิวสิคเคิล จำกัด",NULL,NULL,"5/1 5/2 5/3 ซอยกาญจนาภิเษก 2",,"คลองบางบอน","บางบอน","กรุงเทพมหานคร","10150",,NULL,NULL,NULL
"102","1","บริษัท อาซาฮี-ไทย อัลลอย จำกัด",NULL,NULL,"9/23 ม.7 ","สุขสวัสดิ์","บางจาก ","พระประแดง ","สมุทรปราการ ","10310",,NULL,NULL,NULL
"103","1","กองทุนการออมแห่งชาติ",NULL,NULL,"420/1 อาคารเพ็ญศรี พิชัยสนิธ คณะสาธารณสุขศาสตร์ มหาวิทยาลัยมหิดล","ราชวิถี ","ทุ่งพญาไท","ราชเทวี ","กรุงเทพมหานคร","10400",,NULL,NULL,NULL
"104","1","บริษัท แอดวานซ์ คอนแท็คเซนเตอร์ จำกัด",NULL,NULL,"414","พหลโยธิน","สามเสนใน","พญาไท","กรุงเทพมหานคร","10400","020292562",NULL,NULL,NULL
"105","1","กรมทางหลวง",NULL,NULL,"2/486","ศรีอยุธยา",,"ราชเทวี","กรุงเทพมหานคร","10400",,NULL,NULL,NULL
"106","1","บริษัท ไนท์แฟรงค์ ชาร์เตอร์ (ประเทศไทย) จำกัด",NULL,NULL,"65/192 ชั้น 23 อาคารชำนาญ เพ็ญชาติ บิสเนส เซ็นเตอร์ ","พระราม 9","ห้วยขวาง ","ห้วยขวาง ","กรุงเทพมหานคร","10320",,NULL,NULL,NULL
"107","1","บริษัท ฟิวชั่น ซอฟต์ จำกัด",NULL,NULL,"77/148 อาคารสิทสาธรทาวเวอร์ ชั้น 34","กรุงธนบุรี ","คลองต้นไทร ","คลองสาน","กรุงเทพมหานคร","10600",,NULL,NULL,NULL
"108","1","บริษัท อักษร เนกซ์ จำกัด",NULL,NULL,"497","บอนด์สตร","บางพูด","ปากเกร็ด","นนทบุรี","11120",,NULL,NULL,NULL
"109","1","บริษัท เทคโนโลยีอินฟราสตรัคเจอร์ จำกัด",NULL,NULL,"137 ซ.สรินธร ถ. แขวง","สรินธร","บางบำหรุ","บางพลัด","กรุงเทพมหานคร","10700",,NULL,NULL,NULL
"110","1","บริษัท ฮาวเด้น แมกซี่ อินชัวรันส์ โบรกเกอร์ จำกัด",NULL,NULL," 2222/9","ลาดพร้าว","พลับพลา","วังทองหลาง ","กรุงเทพมหานคร","10310",,NULL,NULL,NULL
"111","1","บริษัท ฮีโน่ มอเตอร์ส แมนูแฟคเจอริ่ง (ประเทศไทย) จำกัด",NULL,NULL,"99 หมู่ 3","เทพารักษ์ ","เทพารักษ์","เมือง","สมุทรปราการ","10270",,NULL,NULL,NULL
"112","1","บริษัท SCG YAMATO EXPRESS Co.,Ltd สาขาบางบัวทอง",NULL,NULL,"80/7","บางกรวย-ไทรน้อย (ปากซอยโชคมงคล)","บางบัวทอง ","บางบัวทอง ","นนทบุรี","11110",,NULL,NULL,NULL
"113","1","การไฟฟ้าฝ่ายผลิตแห่งประเทศไทย แผนกปฏิบัติการสารสนเทศ",NULL,NULL,"53 หมู่ 3 ","จรัญสนิทวงศ์ ",,"บางกรวย","นนทบุรี","11130",,NULL,NULL,NULL
"114","1","การไฟฟ้าฝ่ายผลิตแห่งประเทศไทย",NULL,NULL,"53 หมู่ 3 ","จรัญสนิทวงศ์ ",,"บางกรวย","นนทบุรี","11130",,NULL,NULL,NULL
"115","1","การไฟฟ้าฝ่ายผลิตแห่งประเทศไทย",NULL,NULL,"53 หมู่ 3 ","จรัญสนิทวงศ์ ",,"บางกรวย","นนทบุรี","11130",,NULL,NULL,NULL
"116","1","บริษัท เทเลอินโฟมีเดีย จำกัด (มหาชน)",NULL,NULL,"1126/2 อาคารวานิช 2 ชั้น 28 ห้อง 2803-2804","เพชรบุรีตัดใหม่","มักกะสัน","ราชเทวี","กรุงเทพมหานคร","10400","022628888",NULL,NULL,NULL
"117","1","บริษัท Corporate HRIS",NULL,NULL,"อาคารซอฟแวร์พาร์ค ชั้นลอย","แจ้งวัฒนะ","คลองเกลือ","ปากเกร็ด","นนทบุรี","11120","025026173",NULL,NULL,NULL
"118","1","บริษัท คิวบ์ ซอฟท์เทค จำกัด",NULL,NULL,"160/170-2 อาคารไอทีเอฟ-สีลมพาเลส ชั้น 13","สีลม","สุริยวงศ์","บางรัก","กรุงเทพมหานคร","10500","026798855",NULL,NULL,NULL
"119","1","กรมราชทัณฑ์",NULL,NULL,"222 ","นนทบุรี 1","สวนใหญ่","เมือง","นนทบุรี","11000","029672222",NULL,NULL,NULL
"120","1","ศูนย์เทคโนโลยีสารสนเทศ กรมวิทยาศาสตร์การแพทย์ กระทรวงสาธารณะสุข",NULL,NULL,"88/7","ติวานนท์","ตลาดขวัญ","เมือง","นนทบุรี","11000","029511453",NULL,NULL,NULL
"121","1","บริษัท แทนเจอรีน จำกัด",NULL,NULL,"อาคารกรุงเทพประกันภัย 25 ชั้น23","สาทรใต้","ทุ่งมหาเมฆ","สาธร","กรุงเทพมหานคร","10120","023538600",NULL,NULL,NULL
"122","1","บริษัท สิงห์ เอสเตท จำกัด (มหาชน)",NULL,NULL,"123 อาคารซันทาวเวอร์ บี ชั้น 22","วิภาวดีรังสิต","จอมพล","จตุจักร","กรุงเทพมหานคร","10900","02050555",NULL,NULL,NULL
"123","1","บริษัท เซิร์ฟเวอร์ทูเดย์ (ประเทศไทย) จำกัด",NULL,NULL,"111/128 หมู่ 2","ราชพฤกษ์","บางรักน้อย","เมือง","นนทบุรี","11000","021957395",NULL,NULL,NULL
"124","1","บริษัท เสริมสุข จำกัด มหาชน",NULL,NULL,"63 หมู่ 3","นนท์-ปทุม","บางขะแยง","เมือง","ปทุมธานี","12000","029753501-10",NULL,NULL,NULL
"125","1","สำนักงานที่ดินจังหวัดนนทบุรี สาขาบางบัวทอง",NULL,NULL,"หมู่บ้านภัทรนิเวศน์","บางกรวย-ไทรน้อย","พิมลราช","บางบัวทอง","นนทบุรี",,"025714116",NULL,NULL,NULL
"126","1","บริษัท อินเตอร์แนชั่นเนิลเอนจิเนียริง จำกัด (มหาชน)",NULL,NULL,"408/37 อาคารพหลโยธินเพลส ชั้น 9","พหลโยธิน","สามเสนใน","พญาไท","กรุงเทพมหานคร","10400","026190199",NULL,NULL,NULL
"127","1","ศูนย์เทคโนโลยีทางการศึกษา สำนักงาน กศน. กระทรวงศึกษาธิการ",NULL,NULL,,"ศรีอยุธยา","ทุ่งพญาไท","ราชเทวี","กรุงเทพมหานคร","10400","02354726",NULL,NULL,NULL
"128","1","บริษัท WIN-WIN (Asia) Co.,Ltd.",NULL,NULL,"408/45 อาคารพหลโยธินเพลส ชั้น 11","พหลโยธิน",,,"กรุงเทพมหานคร","10400","026191660",NULL,NULL,NULL
"129","1","บริษัท พีน่าเฮ้าส์ จำกัด (มหาชน)",NULL,NULL,"967 ซอย จรัลสนิทวงศ์ 46","จรัลสนิทวงศ์","บางยี่ขัน","บางพลัด","กรุงเทพมหานคร","10700","024346921-8",NULL,NULL,NULL
"130","1","โรงพยาบาลศิริราช",NULL,NULL,"2","วังหลัง","ศิริราช","บางกอกน้อย","กรุงเทพมหานคร","10700","024197000",NULL,NULL,NULL
"131","1","สำนักงานเลขาธิการสภาผู้แทนราษฏร สำนักงานสารสนเทศ",NULL,NULL,"110","ประดิพัทธ์","พญาไท","พญาไท","กรุงเทพมหานคร","10400","024361416",NULL,NULL,NULL
"132","1","บริษัท บิทคับ ออนไลน์ จำกัด",NULL,NULL,"36 อาคาร P.S. Tower ชั้น 30 ซอย สุขุมวิท 21","อโศก-มนตรี","คลองเตยเหนือ","วัฒนา","กรุงเทพมหานคร","10110","020329555",NULL,NULL,NULL
"133","1","หน่วยบริการและปฏิบัติการ วิทยาลัยนานาชาติ มหาวิทยาลัยมหิดล",NULL,NULL,"999","พุทธมณฑล สาย 4","ศาลายา","พุทธมณฑล","นครปฐม","73170","029339750",NULL,NULL,NULL
"134","1","บริษัท จีดีแอล กรุ๊ป จำกัด",NULL,NULL,"1693 เซ็นทรัลพลาซ่าลาดพร้าว ชั้น 12","พหลโยธิน","จตุจักร","จตุจักร","กรุงเทพมหานคร","10900","0625288551",NULL,NULL,NULL
"135","1","บริษัท เอส.แอล.เค.เอ. จำกัด (มหาชน)",NULL,NULL,"90 อาคาร S.L.A.K. ","เพชรเกษม 24","ปากคลองภาษีเจริญ","ภาษีเจริญ","กรุงเทพมหานคร","10160","028709008",NULL,NULL,NULL
"136","1","บริษัท อโกด้า เซอร์วิสเซส จำกัด",NULL,NULL,"999/9 อาคารดิออฟฟิศเซส แอท เซ็นทรัลเวิล์ด","พระราม 1","ปทุมวัน","ปทุมวัน","กรุงเทพมหานคร","10330","026259200",NULL,NULL,NULL
"137","1","บริษัท PSP Accounting And Law Co.,ltd",NULL,NULL,"3/40 ซอย นนทบุรี 48","สนามบินน้ำ",,"เมือง","นนทบุรี","11000","028508758",NULL,NULL,NULL
"138","1","บริษัท Go Soft (Thailand) Co.,Ltd.",NULL,NULL,,"สีลม",,"บางรัก","กรุงเทพมหานคร",,,NULL,NULL,NULL
"139","1","บริษัท EXP GROUP",NULL,NULL,"173","สมเด็จพระปิ่นเกล้า","บางยี่ขัน","บางพลัด","กรุงเทพมหานคร","10700","0653209339",NULL,NULL,NULL
"140","1","บริษัท Nilecon Thailand co.,ltd.",NULL,NULL,"202 อาคารเลอคองคอร์ด ชั้น 20 ห้อง 2001","รัชดาภิเษก","ห้วยขวาง","ห้วยขวาง","กรุงเทพมหานคร","10310","026941984",NULL,NULL,NULL
"141","1","บริษัท เงินติดล้อ จำกัด (มหาชน)",NULL,NULL,"428 อาคารอารีย์","พหลโยธิน","สามเสนใน","พญาไท","กรุงเทพมหานคร","10400","099735252 ",NULL,NULL,NULL
"142","1","บริษัท Bangkok Payment Solutions Co., Ltd. ",NULL,NULL,"123 Suntowers Building B, ชั้น 17","วิภาวดีรังสิต","จอมพล","จตุจักร","กรุงเทพมหานคร","10900","026179880",NULL,NULL,NULL
"143","1","สถาบันการบินพลเรือน",NULL,NULL,"1032/355","พหลโยธิน","จอมพล","จตุจักร","กรุงเทพมหานคร","10900","022725741",NULL,NULL,NULL
"144","1","บริษัท ทัชเทคโนโลยี จำกัด (สำนักงานใหญ่)",NULL,NULL,"อาคารเคเอสพี ชั้นที่ 3 296 ","พระราม 9","ห้วยขวาง","ห้วยขวาง","กรุงเทพมหานคร","10310","02 664 6158",NULL,NULL,NULL
"145","1","บริษัท ไพร้ซวอเตอร์เฮาส์คูเปอร์ส เอบีเอเอส จำกัด",NULL,NULL,"Bangkok City Tower 179 74-80  ชั้น 15","สาทรใต้ ","ทุ่งมหาเมฆ ","สาทร","กรุงเทพมหานคร","10120","02 844 1000",NULL,NULL,NULL
"146","1","บริษัท BP Luxury Travel Co.,Ltd.",NULL,NULL,"128 ซอย 28/1 ซอยท่าข้าม ",,"แสมดำ","บางขุนเทียน ","กรุงเทพมหานคร","10150","021183890",NULL,NULL,NULL
"147","1","บริษัท เอ็ม.ดี.ซอฟต์ จำกัด",NULL,NULL,"999/95 ซอยพหลโยธิน 34 ",,"เสนานิคม","จตุจักร","กรุงเทพมหานคร","10900","029417455",NULL,NULL,NULL
"148","1","บริษัท MFEC Public Company Limited.(PCL)",NULL,NULL,"349 อาคาร SJ Infinite one ชั้น 12 ","วิภาวดีรังสิต","จอมพล","จตุจักร","กรุงเทพมหานคร","10900","028217999",NULL,NULL,NULL
"149","1","บริษัท แมงโก้ เทคโนโลยี จำกัด",NULL,NULL,"468/8 ซอยลาดพร้าว 130 (มหาดไทย2)",,"คลองจั่น","บางกะปิ","กรุงเทพมหานคร","10240","021021721 ",NULL,NULL,NULL
"150","1","บริษัท เดลิเทค จำกัด",NULL,NULL,"เดอะ ปาร์ค ชั้น 6 ฝั่งตะวันตก 88","รัชดาภิเษก",,"คลองเตย","กรุงเทพมหานคร","10110","0615695288",NULL,NULL,NULL
"151","1","บริษัท บอน-ซอง จำกัด ",NULL,NULL,"104/4 ","สามัคคี","ท่าทราย","เมือง","นนทบุรี","11000","020497991 ",NULL,NULL,NULL
"152","1","บริษัท ฟาวเดอร์ กรุ๊ป โฮลดิ้งส์ จำกัด   ",NULL,NULL,"1 อาคารเอ็มไพร์ทาวเวอร์ ชั้น 47 ยูนิต 4703 ","สาทรใต้","ยานนาวา","สาทร","กรุงเทพมหานคร","10120",,NULL,NULL,NULL
"153","1","บริษัท FALCO SOLUTION CO.,LTD. ",NULL,NULL,"GSE4 Fl.3, หมู่ 9, Sports City Tower","ประชาชื่น","บางตลาด","บางตลาด","นนทบุรี","11120",,NULL,NULL,NULL
"154","1","สถานีตำรวจภูธรปลายบาง ",NULL,NULL,"167 หมู่ 1",,"ปลายบาง","บางกรวย","นนทบุรี","11130","0898945782",NULL,NULL,NULL
"155","1","สำนักงานส่งเสริมเศรษฐกิจดิจิทัล (Depa) ",NULL,NULL,"80 ซอย ลาดพร้าว 4 ",,"จอมพล","จตุจักร","กรุงเทพมหานคร","10900","020262333",NULL,NULL,NULL
"156","1","บริษัท ท๊อปเทค 777 จำกัด",NULL,NULL,"317","เสนานิคม 1 ","ลาดพร้าว","ลาดพร้าว","กรุงเทพมหานคร","10230","064 556 9447",NULL,NULL,NULL
"157","1","บริษัท แอ็บโซลูท เทคโนวัน จำกัด  ",NULL,NULL,"77/6 ซอยลาดพร้าว 35 ",,,"จตุจักร","กรุงเทพมหานคร","10900","025132324",NULL,NULL,NULL
"158","1","ศูนย์ไซเบอร์ทหาร กองบัญชาการกองทัพไทย ",NULL,NULL,"อาคาร 7 ชั้น 2 เลขที่ 127 หมู่ 3  ","แจ้งวัฒนะ","ทุ่งสองห้อง","หลักสี่","กรุงเทพมหานคร","10210",,NULL,NULL,NULL
"159","1","บริษัท ดีเฟนซ์ อินโนเวชั่น จำกัด",NULL,NULL,"เลขที่ 29 ซอยรัตนาธิเบศร์ 28 ",,"บางกระสอ","เมือง","นนทบุรี","11000","02 301 0800",NULL,NULL,NULL
"160","1","บริษัท อินเตอร์ เซต รีเสิร์ช แอนด์ โซลูชั่น จำกัด ",NULL,NULL,"ตึกช้าง อาคารบี ชั้น 23 3300/119 ","พหลโยธิน ","จอมพล","จตุจักร","กรุงเทพมหานคร","10900","02 513 7025",NULL,NULL,NULL
"161","1","การไฟฟ้าส่วนภูมิภาค อำเภอชัยบาดาล",NULL,NULL,,,"ลำนารายณ์ ","ชัยบาดาล","ลพบุรี","15130",,NULL,NULL,NULL
"162","1","บริษัท ดีไอทีซี จำกัด บริษัทในเครือบริษัท ธรรมนิติ จำกัด (มหาชน)",NULL,NULL,"178 ซอยเพิ่มทรัพย์ (ประชาชื่น 20) ","ประชาชื่น ","บางซีื่อ","บางซื่อ","กรุงเทพมหานคร","10800","0880005118",NULL,NULL,NULL
"163","1","บริษัท เซสท์ตี้ เทค โซลูชั่น จำกัด",NULL,NULL,"454/62 ซ.วัดไผ่เงิน ",,"บางโคล่","บางคอแหลม","กรุงเทพมหานคร","10120","0851596489",NULL,NULL,NULL
"164","1","สำนักงานเขตดอนเมือง",NULL,NULL,"999","วุฒากาศ","ดอนเมือง","ดอนเมือง","กรุงเทพมหานคร","10210","025659424–33",NULL,NULL,NULL
"165","1","บริษัท A-Host Company Limited",NULL,NULL,"979, 52-55 ","พหลโยธิน","พญาไท","พญาไท","กรุงเทพมหานคร","10400",,NULL,NULL,NULL
"166","1","บริษัท สบาย เทคโนโลยี จำกัด มหาชน",NULL,NULL,"อาคารตลาดหลักทรัพย์แห่งประเทศไทย 93 ","รัชดาภิเษก",,"ดินแดง","กรุงเทพมหานคร","10400","02 009 9000",NULL,NULL,NULL
"167","1","บริษัท เคมิท กรุ๊ป",NULL,NULL,"89 อาคารคอสโม ออฟฟิศ พาร์ค ชั้น 5 ยูนิต ไอ ","ป๊อปปูล่า ","บ้านใหม่ ",,"นนทบุรี","11120","02 049 1740",NULL,NULL,NULL
"168","1","ห้องปฏิบัติการวิจัยเทคโนโลยีประมวลผลภาษาธรรมชาติและความหมาย (LST) ศูนย์เทคโนโลยีอิเล็กทรอนิกส์และคอมพิวเตอร์แห่งชาติ (NECTEC)",NULL,NULL,"112","พหลโยธิน","คลองหนึ่ง ","คลองหลวง","ปทุมธานี","12120","025646900 ",NULL,NULL,NULL
"169","1","บริษัท Getnature (Thailand) Co.,Ltd.",NULL,NULL,"155/25 หมู่บ้านนฤรัตน์ หมู่ที่ 1 ",,"ศาลายา ","พุทธมณฑล ","นครปฐม",,"0981969466 ",NULL,NULL,NULL
"170","1","บริษัท โซแอ็ท โซลูชั่น จำกัด",NULL,NULL,"165/57","รามอินทรา","อนุเสาวรีย์","บางเขน","กรุงเทพมหานคร","10220","020590511",NULL,NULL,NULL
"171","1","บริษัท บู๊ตึ๊งกรุ๊ป จำกัด",NULL,NULL,"19/1-2 อาคารวังเด็ก 3 ชั้น 7 ห้อง 7B ",,,"จตุจักร","กรุงเทพมหานคร","10900","0970096569",NULL,NULL,NULL
"172","1","บริษัท โทรคมนาคมแห่งชาติ จำกัด",NULL,NULL,"67 อาคารชุมสายโทรทรัพย์ ","ประชาราษฏร์ ","ตลาดขวัญ","เมือง","นนทบุรี","11000","025251235 ",NULL,NULL,NULL
"173","1","กรมเชื้อเพลิงธรรมชาติ กระทรวงพลังงาน",NULL,NULL,"ชั้นที่ 21-22 ศูนย์เอนเนอร์ยี่ คอมเพล็กซ์ อาคารบี เลขที่ 555/2 ","วิภาวดีรังสิต","จตุจักร","จตุจักร","กรุงเทพมหานคร","10900","02 794 3000",NULL,NULL,NULL
"174","1","ห้างหุ้นส่วนจำกัด บ้านตะไคร้ ",NULL,NULL,"76 ซอย 2",,,"เมือง","นนทบุรี","11000",,NULL,NULL,NULL
"175","1","สำนักงานเขตดุสิต",NULL,NULL,"317","สุโขทัย","ดุสิต","ดุสิต","กรุงเทพมหานคร","10300","02 243 5311",NULL,NULL,NULL
"176","1","บริษัท คอนสตรัคชั่น ไลนส์ จำกัด ",NULL,NULL,"55 ซอย รามอินทรา 23",,"อนุเสาวรีย์","บางเขน","กรุงเทพมหานคร","10220","02 521 8144",NULL,NULL,NULL
"177","1","บริษัท ไมด้า เคมิคอล จำกัด",NULL,NULL,"115/10 หมู่ 3 ซอยขจรวิทย์","เทพารักษ์","บางพลีใหญ่ ","บางพลี","สมุทรปราการ ","10540","021788882",NULL,NULL,NULL
"178","1","บริษัท สามารถคอร์ปอเรชั่น จำกัน (มหาชน)",NULL,NULL,"99/1 หมู่ 4 อาคารซอฟต์แวร์ปารค์ ซอยแจ้งวัฒนะ-ปากเกร็ด ",,,"ปากเกร็ด","นนทบุรี","11120",,NULL,NULL,NULL
"179","1","บริษัท วิลล่าคุณาลัย จำกัด มหาชน",NULL,NULL,"819 หมู่ 7 ","บ้านกล้วย-ไทรน้อย ","พิมลราช","บางบัวทอง","นนทบุรี","11110","02 150-6744",NULL,NULL,NULL
"180","1","บริษัท เควิน จำกัด",NULL,NULL,"สำนักงานใหญ่ 199/133 ซอยสุขุมวิท 63 (เอกมัย) ",,"คลองตันเหนือ","วัฒนา","กรุงเทพมหานคร","10110","0874616161",NULL,NULL,NULL
"181","1","สำนักงานเทศบาลตำบลด่านสำโรง",NULL,NULL,"545 ซอยด่านสำโรง 47 ",,"สำโรงเหนือ ","เมือง","สมุทรปราการ ","10270","027592770 ",NULL,NULL,NULL
"182","1","สาขาวิชาวิทยาการคอมพิวเตอร์ คณะวิทยาศาสตร์และเทคโนโลยี มทร.พระนคร ",NULL,NULL,"1381","ประชาราษฎร์1","วงศ์สว่าง","บางซื่อ","กรุงเทพมหานคร","10800",,NULL,NULL,NULL
"183","1","บริษัท FESSOPY CO.,LTD.",NULL,NULL,"อาคาร เอไอเอ แคปปิตอล เซ็นเตอร์ ชั้นที่ 15 เลขที่ 1508",,"ดินแดง","ดินแดง","กรุงเทพมหานคร","10400","0982561488",NULL,NULL,NULL
"184","1","ศูนย์รักษาความปลอดภัย กองบัญชาการกองทัพไทย",NULL,NULL,"17 รามอินทรา กธก.(ศรภ.)","รามอินทรา","อนุสาวรีย์","บางเขน","กรุงเทพมหานคร",,"025210130-39",NULL,NULL,NULL
"185","1","บริษัท โปร พาวเวอร์ เทค จำกัด",NULL,NULL,"734 ซอย ลาดพร้าว 87",,"คลองจั่น","บางกะปี","กรุงเทพมหานคร","10240","0895338886",NULL,NULL,NULL
"186","1","ที่ว่าการอำเภอแปลงยาว",NULL,NULL,,,"วังเย็น","แปลงยาว","ฉะเชิงเทรา",,"0385890001",NULL,NULL,NULL
"187","1","มณฑลทหารบกที่ 11",NULL,NULL,"225","แจ้งวัฒนะ","ทุ่งสองห้อง","หลักสี่","กรุงเทพมหานคร",,"021572864",NULL,NULL,NULL
"188","1","บริษัท ปณีต อินเทอร์แอคทีฟ จำกัด",NULL,NULL,"64/1 ซอยจรัญสนิทวงศ์ 86/1","จรัญสนิทวงศ์","บางอ้อ","บางพลัด","กรุงเทพมหานคร","10700","0963565469",NULL,NULL,NULL
"189","1","บริษัท เมจิกซอฟท์แวร์ (ประเทศไทย) จำกัด",NULL,NULL,"9/68 รัชดาภิเษก 33","รัชดาภิเษก","จตุจักร","จตุจักร","กรุงเทพมหานคร","10900","029119988",NULL,NULL,NULL
"190","1","บริษัท Metrabyte ONE CO.,LTD.",NULL,NULL,"130 ซ.รัตนาธิเบศร์ 28 แยก 2","รัตนาธิเบศร์","บางกระสอ","เมือง","นนทบุรี","11000","0624983905",NULL,NULL,NULL
"191","1","บริษัท ทิพยประกันภัย จำกัด (มหาชน)",NULL,NULL,"1115","พระราม 3","ช่องนนทรี","ยานนาวา","กรุงเทพมหานคร","10120","022392200",NULL,NULL,NULL
"192","1","บริษัท อี พลัสวัน จำกัด",NULL,NULL,"989/42 หมู่บ้าน ดิ แอลลิแกนซ์","มาเจริญ","หนองแขม","หนองแขม","กรุงเทพมหานคร",,"0867860096",NULL,NULL,NULL
"193","1","บริษัท เค ที เอ็น บิสซิเนส โซลูชั่นส์ จำกัด",NULL,NULL,"111/39 หมู่บ้าน อัญมณี ซอยลาดพร้าว 18 แยก 8","ลาดพร้าว","จอมพล","จตุจักร","กรุงเทพมหานคร","10900","029385739",NULL,NULL,NULL
"194","1","บริษัท J2P Softnic Co.,Ltd.",NULL,NULL,"135/85 หมู่ 6","พุทธมณฑล สาย 4","ศาลายา","พุทธมณฑล","นครปฐม","73173","0994928955",NULL,NULL,NULL
"195","1","บริษัท เปอรุมาล์ เทคโนโลยี แอนด์ เทเลคอมมิวนิเคชั่น(ไทยแลนด์) จำกัด",NULL,NULL,"731 อาคารพีเอ็มทาวเวอร์ ชั้น 18","อโศก-ดินแดง","ดินแดง","ดินแดง","กรุงเทพมหานคร","10400","022453936",NULL,NULL,NULL
"196","1","บริษัท ไทยโพลิเอททีลีน จำกัด",NULL,NULL,"10","ไอ-หนึ่ง","มาบตาพุต","เมือง","ระยอง","21150","0828894490",NULL,NULL,NULL
"197","1","บริษัท ไอคอน เฟรมเวิร์ค จำกัด",NULL,NULL,"602 สำนักงานใหญ่ ทรู ดิจิทัล พาร์ค สุขุมวิท 101 ตึกฟีนิกซ์ ชั้น 6","สุขุมวิท","บางจาก","พระโขนง","กรุงเทพมหานคร","10260","027464903",NULL,NULL,NULL
"198","1","บริษัท เบบี้เฟิร์ส กร๊ป จำกัด",NULL,NULL,"15/62-15/65 หมู่ 1 โครงการประดับดาววิลเลจ","ราชพฤกษ์","ท่าอิฐ","ปากเกร็ด","นนทบุรี","11120","0934424461",NULL,NULL,NULL
"199","1","บริษัท พรหมมหาราชพัฒนาที่ดิน จำกัด",NULL,NULL,"488 โบ๊เบ๊ทาวน์เวอร์","ดำรงรักษ์","คลองมหานาค","ป้อมปราบศัตรูพ่าย","กรุงเทพมหานคร","10100","026281062",NULL,NULL,NULL
"200","1","สำนักเทคโนโลยีสารสนเทศและการสื่อสาร สำนักงานเลขาธิการวุฒิสภา",NULL,NULL,"1111","สามเสน","นครไชยศรี","ดุสิต","กรุงเทพมหานคร","10300","028319270",NULL,NULL,NULL
"201","1","บริษัท พลัสไอทีโซลูชั่น จำกัด",NULL,NULL,"62/22 ซ.เจริญกรุง 42/1","เจริญกรุง",,"บางรัก","กรุงเทพมหานคร","10500","0876712225",NULL,NULL,NULL
"202","1","บริษัท SafeComs Network Security Consulting Co.,Ltd.",NULL,NULL,"191/70-73 CTI Tower ชั้น 14","รัชดาภิเษก","คลองเตย",,"กรุงเทพมหานคร","10110","021054520",NULL,NULL,NULL
"203","1","บริษัท เก็ทเนเจอร์ (ไทยแลนด์) จำกัด",NULL,NULL,"155/25 หมู่บ้านนฤรัตน์",,"ศาลายา","พุทธมณฑล","นครปฐม","73170","0981969466",NULL,NULL,NULL
"204","1","บริษัท อักษรโลจิสติกส์ จำกัด",NULL,NULL,"9/16 หมู่ 9",,"บางม่วง","บางใหญ่","นนทบุรี","11140","024033004 ext 3",NULL,NULL,NULL
"205","1","บริษัท แอพแมน จำกัด",NULL,NULL,"2525 FYI Centre ชั้น 8 ","พระราม 4","คลองเตย","คลองเตย","กรุงเทพมหานคร","10110","020795477",NULL,NULL,NULL
"206","1","บริษัท ไทยรุ่ง",NULL,NULL,"304","นาเจริญ","หนองค้างพลู","หนองแขม","กรุงเทพมหานคร","10160","024200076",NULL,NULL,NULL
"207","1","บริษัท ไมด้า แอสเซ็ท จำกัด (มหาชน)",NULL,NULL,"267","จรัญสนิทวงศ์","บางอ้อ","บางพลัด","กรุงเทพมหานคร","10700","024342390-7",NULL,NULL,NULL
"208","1","บริษัท โรงปั๊มพระช่างโต้ง จำกัด",NULL,NULL,,,"ราษฏร์นิยม","ไทยน้อย","นนทบุรี","11150","0971854224",NULL,NULL,NULL
"209","1","บริษัท คอมมี คอร์ปอเรชัน จำกัด",NULL,NULL,"65/114 อาคารชำนาญเพ็ญชาติ ชั้น 12เอ","พระราม 9","ห้วยขวาง","ห้วยขวาง","กรุงเทพมหานคร","10310","0623249035",NULL,NULL,NULL
"210","1","บริษัท Stelligence Company Limited",NULL,NULL,"อาคารพร้อมพันธ์ 2-3","ลาดพร้าว","จอมพล","จตุจักร","กรุงเทพมหานคร","10900","020246661",NULL,NULL,NULL
"211","1","บริษัท เมดิกา เฮลท์แคร์ จำกัด",NULL,NULL,"1/81 พาทาโกเนีย",,,"มีนบุรี","กรุงเทพมหานคร","10510","0813447163",NULL,NULL,NULL
"212","1","บริษัท ฟอร์ท สมาร์ท เซอร์วิส จำกัด (มหาชน) ",NULL,NULL,"256","พหลโยธิน","สามเสนใน","พญาไท","กรุงเทพมหานคร","10400","0232781777",NULL,NULL,NULL
"213","1","บริษัท ล็อบสเตอร์เทค จำกัด",NULL,NULL,"Townhome The Metro Sathorn ทาวน์โฮม เดอะเมทโทร","สาทร ซอย 9","บางหว้า","ภาษีเจริญ","กรุงเทพมหานคร","10160","020601155",NULL,NULL,NULL
"214","1","บริษัท เทคโนโลยี อินฟราสตรัคเจอร์ จำกัด",NULL,NULL,"158","บรมราชชนนี","ตลิ่งชัน","ตลิ่งชัน","กรุงเทพมหานคร","10170","024349799",NULL,NULL,NULL
"215","1","การไฟฟ้าส่วนภูมิภาค",NULL,NULL,"200","งามวงศ์วาน","ลาดยาว","จตุจักร","กรุงเทพมหานคร","10900",,NULL,NULL,NULL
"216","1","บริษัท Synchronize Technology co.,ltd.",NULL,NULL,"70","ซอย สามัคคี 28","ท่าทราย","เมือง","นนทบุรี","11000","029522133",NULL,NULL,NULL
"217","1","บริษัท เค ที เอ็น บิสซิเนส โซลูชั่นส์ จำกัด",NULL,NULL,"110/39 ซอย ลาดพร้าว 18  แยก 8 Chompon","ลาดพร้าว","จอมพล","จตุจักร","กรุงเทพมหานคร","10900","0816574151",NULL,NULL,NULL
"218","1","บริษัท Techspace Co., Ltd.",NULL,NULL,"1112/111","สุขุมวิท","พระโขนง","คลองเตย","กรุงเทพมหานคร","10110","023819073",NULL,NULL,NULL
"219","1","ห้างหุ้นส่วนจำกัด เจซี คอมพิวเตอร์ แอนด์ คอนซัลแทนท์ (สำนักงานใหญ่)",NULL,NULL,"12/48 หมู่ 6","บางกอกน้อย",,"เมือง","นนทบุรี","11000","029651185",NULL,NULL,NULL
"220","1","บริษัท อินโฟเน็ท อินเตอร์เนชั่นแนล จำกัด",NULL,NULL,"1550 ชั้น 25 อาคารธนภูมิ","เพชรบุรีตัดใหม่","มักกะสัน","ราชเทวี","กรุงเทพมหานคร","10400","028055399",NULL,NULL,NULL
"221","1","การกีฬาแห่งประเทศไทย",NULL,NULL,"286","รามคำแหง","หัวหมาก","บางกะปิ","กรุงเทพมหานคร","10240","021867111 ต่อ 8",NULL,NULL,NULL
"222","1","สำนักงานนโยบายและแผนพลังงาน (สนพ.) กระทรวงพลังงาน",NULL,NULL,"121/1-2","เพชรบุรี","ทุ่งพญาไท","ราชเทวี","กรุงเทพมหานคร","10400","026121555 ต่อ 4",NULL,NULL,NULL
"223","1","บริษัท ฟู้ดแพชชั่น จำกัด",NULL,NULL,"33","ประชาชื่น","ทุ่งสองห้อง","หลักสี่","กรุงเทพมหานคร","10210","025751010",NULL,NULL,NULL
"224","1","บริษัท เบสท์ แอเรีย อินโนเวชั่น จำกัด",NULL,NULL,"369/1 ห้อง 101 120 103 อาคารดีวิน","สนามบินน้ำ","ท่าทราย","เมือง","นนทบุรี","11000","02786800",NULL,NULL,NULL
"225","1","มหาวิทยาลัยนวมินทราธิราช",NULL,NULL,"3","ขาว","วชิรพยาบาล","ดุสิต","กรุงเทพมหานคร","10300","026689881",NULL,NULL,NULL
"226","1","บริษัท แฮนด์ดี้วิง จำกัด",NULL,NULL,"85/5 หมู่ 8 หมู่บ้านโกลเด้นทาวน์","ปิ่นเกล้า-จรัยสนิทวงศ์","บางกรวย","เมือง","นนทบุรี","11130","0955265868",NULL,NULL,NULL
"227","1","บริษัท ดีสแร็พเตอร์ จำกัด ",NULL,NULL,"8 ซ.วิภาวดีรังสิต 36","วิภาวดีรังสิต",,"จตุจักร","กรุงเทพมหานคร","10900","021054333",NULL,NULL,NULL
"228","1","บริษัท ซีพี รีเทลลิงค์ จำกัด",NULL,NULL,"159/30 ซอยวิภาวดีรังสิต 62 (ศรีรับสุข)","วิภาวดีรังสิต","ตลาดบางเขน","หลักสี่","กรุงเทพมหานคร","10210","02786800",NULL,NULL,NULL
"229","1","สำนักปลัดกระทรวงพลังงาน ",NULL,NULL,,"มิตรไมตรี","ดินแดง","ดินแดง","กรุงเทพมหานคร","10400","022321386",NULL,NULL,NULL
"230","1","ศูนย์สารสนเทศและนวัตกรรมข้อมูลศิริราช คณะแพทย์ศาสตร์ศิริราชพยาบาล มหาวิทยาลัยมหิดล",NULL,NULL,,,,,,,"024143168",NULL,NULL,NULL
"231","1","บริษัท IT MACC ELECTRONICS (THAILAND) CO.,LTD.",NULL,NULL,"86 อาคารวินวินทาวเวอร์","จันทรเกษม",,"จตุจักร","กรุงเทพมหานคร","10900","0944765230",NULL,NULL,NULL
"232","1","โลตัส โกเฟรช รัชดาภิเษก 13",NULL,NULL,"182/1 ซอย เทอดไท 33",,"คะนอง","ธนบุรี","กรุงเทพมหานคร",,"028788205",NULL,NULL,NULL
"233","1","บริษัท นิลิคอน (ประเทศไทย) จำกัด",NULL,NULL,"202 Leconcord Tower (1207) 12 Fl.","รัชดาภิเษก",,,"กรุงเทพมหานคร","10310","09098534184",NULL,NULL,NULL
"234","1","บริษัท โค้ดมันเดย์ จำกัด",NULL,NULL,"491/16","สีลม","สีลม","บางรัก","กรุงเทพมหานคร","10500","0618476466",NULL,NULL,NULL
"235","1","True Internet Data Center Co.,Ltd.",NULL,NULL,,"ป๊อบปูล่า","บ้านใหม่","ปากเกร็ด","นนทบุรี","11120","0830443237",NULL,NULL,NULL
"236","1","159 Interconstruction Limited Partnership",NULL,NULL,"225 หมู่ที่ 5",,"ริมกก","เมือง","เชียงราย","57100","0569282969",NULL,NULL,NULL
"237","1","T.G. Cellular World Co.,Ltd.",NULL,NULL,"141/35 สกุลไทยทาวเวอร์","สุรวงศ์","สุริยวงศ์","บางรัก","กรุงเทพมหานคร","10500","022375557-9",NULL,NULL,NULL
"238","1","บริษัท ไปรษณีย์ไทย จำกัด ฝ่ายพัฒนาสินค้าและบริการดิจิทัล",NULL,NULL,"111","แจ้งวัฒนะ","ทุ่งสองห้อง","หลักสี่","กรุงเทพมหานคร","10210","028313395",NULL,NULL,NULL
"239","1","บริษัท เอวิชั่น จำกัด",NULL,NULL,"979/52 อาคารเอสเอ็มทาวเวอร์","พหลโยธิน","สามเสนใน","พญาไท","กรุงเทพมหานคร","10400","0948164379",NULL,NULL,NULL
"240","1","บริษัท เอ็นคอนเซ็ปท์ เอ็ดดูเคชั่น จำกัด",NULL,NULL,"328 ชั้น 11 อาคารสภาคริสตจักรในประเทศไทย","เพชรบุรี","พญาไท","ราชเทวี","กรุงเทพมหานคร","10400","0968686325",NULL,NULL,NULL
"241","1","บริษัท ชาญนครวิศวกรรม จำกัด",NULL,NULL,"35 หมู่ 12",,"ึคูบางหลวง","ลาดหลุมแก้ว","ปทุมธานี","12140","021050999",NULL,NULL,NULL
"242","1","บริษัท เคบีเจ แคปปิตอล จำกัด",NULL,NULL,"89 อาคารเอไอเอ แคปปิตอล เซ็นเตอร์ ชั้น 3","รัชดาภิเษก","ดินแดง","ดินแดง","กรุงเทพมหานคร","10400","021613333",NULL,NULL,NULL
"243","1","บริษัท ออนไลน์แอสเซ็ท จำกัด",NULL,NULL,"466 ซอย รัชดาภิเษก 28",,"สามเสนนอก","ห้วยขวาง","กรุงเทพมหานคร","10310","020226200",NULL,NULL,NULL
"244","1","การไฟฟ้าส่วนภูมิภาค อำเภอพุทธมณฑล",NULL,NULL,"160 หมู่ที่ 1",,"ศาลายา","พุทธมณฑล","นครปฐม","73170","024821481",NULL,NULL,NULL
"245","1","Horizon Solution co.,Ltd.",NULL,NULL,"99/24 ซอย แก้วอินทร์","บางใหญ่-กาญจนาภิเษก","เสาธงหิน","บางใหญ่","นนทบุรี","11140","0925539828",NULL,NULL,NULL
"246","1","บริษัท เอ็มเอฟ อี ซี จำกัด (มหาชน)",NULL,NULL,"349 SJ Infinite One Business Complex","วิภาวดีรังสิต",,"จตุจักร","กรุงเทพมหานคร","10900","028247999",NULL,NULL,NULL
